1 00351U 61015DR  18212.96632229  .00000312  00000-0  98174-4 0  9994
2 00351  66.7518  60.3803 0034731 354.2171   5.8533 14.52798794957882
1 03509U 68091F   18213.02541496  .00000351  00000-0  48136-4 0  9992
2 03509  62.3609 184.6778 0375170 138.7413 224.2671 14.57620363482168
1 34968U 93036AEX 18212.65023303 +.00000022 +00000-0 +11572-4 0  9991
2 34968 074.0420 315.3539 0091223 037.6184 323.1312 14.55884255492900
1 34969U 93036AEY 18212.74684629 +.00000078 +00000-0 +40448-4 0  9991
2 34969 074.0136 236.1223 0080783 281.6796 077.5296 14.28125735266916
1 34970U 93036AEZ 18212.15422625  .00003690  00000-0  26498-3 0  9995
2 34970  73.9907 152.5693 0025146 226.1170 133.7943 15.04464357500293
1 34971U 93036AFA 18212.67379836  .00000037  00000-0  16115-4 0  9996
2 34971  73.9814 338.1090 0073822 115.8159 304.9456 14.51636830493569
1 34972U 93036AFB 18211.65004662 +.00000441 +00000-0 +12992-3 0  9993
2 34972 073.9969 093.0786 0056196 168.0372 221.4947 14.45759813485820
1 34976U 93036AFF 18212.19341528 +.00000243 +00000-0 +62442-4 0  9998
2 34976 074.0661 027.7824 0068811 060.3937 057.3553 14.54144353490136
1 34977U 93036AFG 18213.19010418  .00001103  00000-0  29631-3 0  9999
2 34977  74.0281 126.8275 0059023 149.0123 211.4541 14.48254507486099
1 34978U 93036AFH 18213.12474697  .00000893  00000-0  13633-3 0  9996
2 34978  74.0245 260.1087 0042275 355.6620   4.4180 14.74903251492576
1 34979U 93036AFJ 18212.78783055  .00000222  00000-0  56081-4 0  9990
2 34979  74.0483   6.1074 0074549  55.2246 305.5904 14.55357604489345
1 34983U 97051NP  18212.41891098  .00002896  00000-0  52984-3 0  9999
2 34983  86.3585  92.8466 0032637 203.3276 156.6458 14.65202482489081
1 34985U 97051NR  18212.70717087 +.00000264 +00000-0 +87097-4 0  9999
2 34985 086.3726 113.0578 0025799 034.7657 354.8225 14.34066483485490
1 34986U 97051NS  18212.88626212 +.00001251 +00000-0 +31194-3 0  9991
2 34986 086.3844 107.3543 0025254 280.7660 079.0703 14.50720604487076
1 34987U 97051NT  18213.26860176  .00001716  00000-0  23262-3 0  9997
2 34987  86.3367  44.8273 0009466 114.3967 245.8242 14.78306261501337
1 34989U 93036AFM 18213.17872538  .00000484  00000-0  12024-3 0  9998
2 34989  74.0229  33.6313 0031827 113.8773 246.5730 14.54210446487196
1 34990U 93036AFN 18211.53260296  .00000111  00000-0  46413-4 0  9997
2 34990  74.0467 167.8634 0017751 183.7339 176.3685 14.36657833487691
1 34991U 93036AFP 18212.89160484  .00000988  00000-0  21653-3 0  9996
2 34991  74.0445  35.7723 0014133 113.4145 246.8508 14.58959409491326
1 34993U 93036AFR 18212.06013756 +.00002411 +00000-0 +45082-3 0  9991
2 34993 074.0152 087.6599 0040595 081.9094 278.6677 14.64939212489686
1 34995U 93036AFT 18212.03669571  .00000926  00000-0  19717-3 0  9997
2 34995  73.8348 345.4567 0047101  31.4893 328.9074 14.59885467490036
1 34997U 93036AFV 18212.35892323  .00000303  00000-0  12398-3 0  9994
2 34997  73.8871 226.8688 0120251  26.9509 333.7814 14.27599000483797
1 34998U 93036AFW 18212.71973292 +.00000205 +00000-0 +72674-4 0  9995
2 34998 074.0150 121.5616 0023942 192.8670 189.2921 14.40532536486101
1 35000U 93036AFY 18211.86858743 +.00000256 +00000-0 +61449-4 0  9992
2 35000 074.0408 016.8962 0078893 058.1344 302.7466 14.56808719489687
1 35012U 93036AFZ 18212.29496102  .00000038  00000-0  18786-4 0  9994
2 35012  74.0203  79.7692 0083568 153.5695 206.9762 14.43009428487481
1 35014U 93036AGB 18212.34130923 +.00000451 +00000-0 +13238-3 0  9993
2 35014 074.0091 089.9518 0014442 164.3192 195.8417 14.46566589322508
1 35015U 93036AGC 18212.55725902  .00000265  00000-0  99539-4 0  9996
2 35015  73.9534 172.9786 0091527 278.7968 199.4959 14.34232096486354
1 35016U 93036AGD 18212.62929604 +.00000090 +00000-0 +42494-4 0  9994
2 35016 073.9312 189.3469 0122805 321.9873 161.2983 14.29866402482818
1 35018U 93036AGF 18213.21825470  .00000207  00000-0  19878-3 0  9997
2 35018  73.9835 182.5228 0368159 277.4884  78.4550 13.59927474466280
1 35019U 93036AGG 18212.96702858  .00001239  00000-0  19979-3 0  9991
2 35019  74.0119 316.9861 0028221  17.4046 342.8086 14.72370593493551
1 35020U 93036AGH 18212.59128506  .00000076  00000-0  21813-4 0  9993
2 35020  74.0516 289.0268 0097233  15.7649 344.6505 14.58802393495307
1 35022U 93036AGK 18212.08659198 +.00000141 +00000-0 +41483-4 0  9993
2 35022 074.0289 011.8045 0054364 159.7536 200.5799 14.51717272200226
1 35023U 93036AGL 18212.80424667  .00000288  00000-0  67716-4 0  9994
2 35023  74.0531 346.7702 0067767  39.6596 110.0040 14.57730723488820
1 35025U 93036AGN 18212.37559985 +.00000076 +00000-0 +20371-4 0  9991
2 35025 073.9378 228.8773 0099623 037.8850 322.9271 14.62205208492361
1 35026U 93036AGP 18212.05343956 -.00000017  00000-0  29375-5 0  9996
2 35026  74.0481 351.3273 0084590  66.9988  49.6684 14.52159130491763
1 35028U 93036AGR 18210.77284750 -.00000005 +00000-0 +57572-5 0  9998
2 35028 074.0408 328.6250 0085244 061.9074 089.9675 14.54473822491186
1 35031U 93036AGU 18213.22015014  .00000054  00000-0  27844-4 0  9991
2 35031  74.0393 161.1237 0020091 199.6451 160.3930 14.35759214486593
1 35032U 93036AGV 18213.23134351  .00000234  00000-0  75055-4 0  9996
2 35032  73.8560  49.7579 0086225  74.6700  45.2195 14.42945626487774
1 35033U 93036AGW 18213.46869491  .00000223  00000-0  78581-4 0  9997
2 35033  74.0316 133.4327 0017446 177.0478 183.0784 14.40288155487420
1 35036U 93036AGZ 13089.71680854  .00005966  00000-0  24488-2 0  9992
2 35036  74.0749 230.0672 0108135 310.7742  48.7503 14.24118514205366
1 35037U 93036AHA 18213.03164374  .00000399  00000-0  90764-4 0  9993
2 35037  74.0058 341.1424 0045195  81.8753 278.7535 14.58693676491690
1 35038U 93036AHB 18212.10095000  .00000192  00000-0  11114-3 0  9992
2 35038  74.0801 113.9641 0147257  60.1374   6.7992 14.09739819476576
1 35039U 93036AHC 18212.91782884 +.00001628 +00000-0 +29183-3 0  9995
2 35039 074.0184 022.8612 0030791 049.0106 311.3719 14.67343051324027
1 35042U 93036AHF 18213.34574894  .00001802  00000-0  22102-3 0  9995
2 35042  74.0123 216.3874 0031332 337.5179  22.4623 14.83626317495504
1 35043U 93036AHG 18212.74963800 -.00000055 +00000-0 -95396-5 0  9996
2 35043 073.9732 331.7580 0205730 064.8253 297.4073 14.25589390287870
1 35045U 93036AHJ 18213.37440022  .00000116  00000-0  88771-4 0  9998
2 35045  73.7202  96.9993 0193036  20.8408  98.0686 13.95663563471454
1 35049U 97051NV  18212.36068944 +.00001530 +00000-0 +32085-3 0  9997
2 35049 086.3703 080.2486 0024677 004.0687 356.0718 14.58875192322938
1 35050U 97051NW  18213.51346024  .00002993  00000-0  41215-3 0  9994
2 35050  86.3044  43.3894 0028001  91.9552 268.4874 14.77645209491674
1 35051U 97051NX  18213.40423978  .00000279  00000-0  86186-4 0  9999
2 35051  86.3253  86.6692 0007743 314.2760  45.7802 14.37792921483505
1 35052U 97051NY  18213.37505993  .00000109  00000-0  31152-4 0  9999
2 35052  86.3300  89.1461 0009976 236.2092 246.2963 14.35507864488994
1 35054U 97051PA  18212.37845961  .00003615  00000-0  51873-3 0  9998
2 35054  86.3439  66.2322 0015701  69.4727 290.8175 14.76161333493162
1 35056U 91025AA  10030.87953118 -.00001994 +00000-0 -16813-1 0  9997
2 35056 065.3186 054.7376 5610935 349.0324 002.6415 04.25227581010506
1 35058U 93036AHM 18213.06457649  .00002666  00000-0  19607-3 0  9994
2 35058  74.0048  93.3552 0060151 146.9617 213.5352 15.02537674499812
1 35059U 93036AHN 18212.83449168  .00001102  00000-0  20577-3 0  9998
2 35059  73.9938 357.1132 0029987  62.4287  87.4669 14.65971419490953
1 35060U 93036AHP 18212.49809466 +.00000094 +00000-0 +40576-4 0  9994
2 35060 074.0390 160.2217 0020085 191.8083 168.2602 14.36700943485574
1 35061U 93036AHQ 18212.43635724 +.00000180 +00000-0 +49212-4 0  9995
2 35061 074.0507 012.3105 0051500 092.4908 268.2151 14.53467360493803
1 35062U 93036AHR 18212.81191354  .00000319  00000-0  18190-3 0  9998
2 35062  74.1005 144.5531 0154570  94.5233 298.0937 14.07419910475837
1 35065U 93036AHU 18213.44818540  .00000157  00000-0  59543-4 0  9992
2 35065  74.0238 135.0367 0022112 193.2855 166.7720 14.38927031486938
1 35066U 93036AHV 18212.25889933 +.00000793 +00000-0 +14451-3 0  9999
2 35066 074.0182 310.2743 0029636 059.7361 300.6736 14.67554717272183
1 35067U 93036AHW 18212.40609674 +.00000732 +00000-0 +14768-3 0  9993
2 35067 073.7544 242.0466 0070527 324.1730 035.4714 14.62052050490246
1 35069U 93036AHY 11276.68213095  .00011156  00000-0  26034-2 0  9996
2 35069  74.0224  16.0297 0134362 113.1305 257.0191 14.49371122131455
1 35071U 93036AJA 18211.09743888  .00000231  00000-0  36031-4 0  9990
2 35071  73.9445 121.8030 0114806 293.1664  65.7447 14.75426848498447
1 35072U 93036AJB 18199.35800406 +.00001525 +00000-0 +40553-3 0  9995
2 35072 074.0905 202.5999 0051394 158.1152 202.2220 14.48656019213162
1 35073U 93036AJC 18212.29654596  .00000601  00000-0  15989-3 0  9991
2 35073  74.0209  71.1717 0039795 126.5791 233.9042 14.50319423490659
1 35076U 93036AJF 18211.75679528  .00000323  00000-0  63347-4 0  9999
2 35076  73.9700 253.7886 0070833  26.7930 333.6868 14.65642006493395
1 35077U 97051PC  18212.76817605 +.00006989 +00000-0 +65398-3 0  9994
2 35077 086.2754 025.3977 0043250 003.4927 356.6594 14.93223183294164
1 35078U 97051PD  18176.45636764 +.00104553 +00000-0 +26949-2 0  9999
2 35078 086.3474 071.5354 0004364 010.0812 350.0528 15.38785846486849
1 35079U 97051PE  18176.84065417  .00003193  00000-0  14011-2 0  9999
2 35079  86.4312 205.7451 0146965 221.1852 137.8173 14.17764032473780
1 35080U 97051PF  18212.75176642 +.00001105 +00000-0 +50747-3 0  9993
2 35080 086.2413 133.7233 0176340 195.7213 163.8456 14.12527609313347
1 35081U 97051PG  15168.43824283 +.00000045 +00000-0 +00000-0 0  9993
2 35081 086.4211 218.9276 0054232 235.2452 124.3683 15.25347491329647
1 35084U 91025AE  14189.96226403 +.00000003 +00000-0 +10000-3 0  9999
2 35084 074.1425 023.0544 5034394 070.9529 336.9925 04.44184140083179
1 35086U 99025DJN 10223.93248307 +.00002251 +00000-0 +73660-3 0  9996
2 35086 098.9468 276.8369 0108441 122.2094 240.0716 14.36216353092800
